NORAD_CAT_ID,OBJECT_NAME,OBJECT_TYPE,EPOCH,MEAN_MOTION,ECCENTRICITY,INCLINATION,RA_OF_ASC_NODE,ARG_OF_PERICENTER,MEAN_ANOMALY,BSTAR,MEAN_MOTION_DOT,MEAN_MOTION_DDOT,TLE_LINE0,TLE_LINE1,TLE_LINE2,SEMIMAJOR_AXIS,PERIOD,APOGEE,PERIGEE,DECAYED
55930.0,STARLINK-5896,PAYLOAD,2023-11-08 22:24:56,14.98320021,0.0002904,69.9988,272.1057,261.3483,98.7347,0.00042437,4.973e-05,0.0,0 STARLINK-5896,1 55930U 23037S   23312.93399243  .00004973  00000-0  42437-3 0  9996,2 55930  69.9988 272.1057 0002904 261.3483  98.7347 14.98320021 36398,6950.224,96.108,574.107,570.07,0.0
55930.0,STARLINK-5896,PAYLOAD,2023-11-09 06:25:36,14.98330606,0.0002372,70.0005,271.2655,240.9796,119.1125,0.00039763,4.655e-05,0.0,0 STARLINK-5896,1 55930U 23037S   23313.26778730  .00004655  00000-0  39763-3 0  9990,2 55930  70.0005 271.2655 0002372 240.9796 119.1125 14.98330606 36442,6950.191,96.107,573.705,570.407,0.0
55930.0,STARLINK-5896,PAYLOAD,2023-11-09 22:26:57,14.98334746,0.0002498,70.0005,269.5816,244.2074,115.8828,9.2886e-05,1.016e-05,0.0,0 STARLINK-5896,1 55930U 23037S   23313.93539189  .00001016  00000-0  92886-4 0  9991,2 55930  70.0005 269.5816 0002498 244.2074 115.8828 14.98334746 36549,6950.178,96.107,573.779,570.307,0.0
55930.0,STARLINK-5896,PAYLOAD,2023-11-10 06:27:38,14.98330049,0.0002752,69.9999,268.7369,263.7475,96.3371,0.00017771,2.028e-05,0.0,0 STARLINK-5896,1 55930U 23037S   23314.26919119  .00002028  00000-0  17771-3 0  9996,2 55930  69.9999 268.7369 0002752 263.7475  96.3371 14.98330049 36937,6950.193,96.107,573.97,570.145,0.0
55930.0,STARLINK-5896,PAYLOAD,2023-11-10 14:28:18,14.98333486,0.000236,70.0002,267.8957,273.4223,86.6666,-3.4709e-05,-5.07e-06,0.0,0 STARLINK-5896,1 55930U 23037S   23314.60299465 -.00000507  00000-0 -34709-4 0  9992,2 55930  70.0002 267.8957 0002360 273.4223  86.6666 14.98333486 36647,6950.182,96.107,573.687,570.407,0.0
55930.0,STARLINK-5896,PAYLOAD,2023-11-11 06:29:39,14.98330986,0.0002747,69.9998,266.2126,271.249,88.8354,1.4904e-05,8.5e-07,0.0,0 STARLINK-5896,1 55930U 23037S   23315.27059056  .00000085  00000-0  14904-4 0  9990,2 55930  69.9998 266.2126 0002747 271.2490  88.8354 14.98330986 37089,6950.19,96.107,573.964,570.146,0.0
55930.0,STARLINK-5896,PAYLOAD,2023-11-11 14:30:19,14.98338658,0.0002227,70.0007,265.3707,270.9245,89.1658,-0.00016399,-2.049e-05,0.0,0 STARLINK-5896,1 55930U 23037S   23315.60438901 -.00002049  00000-0 -16399-3 0  9990,2 55930  70.0007 265.3707 0002227 270.9245  89.1658 14.98338658 36797,6950.166,96.106,573.579,570.483,0.0
55930.0,STARLINK-5896,PAYLOAD,2023-11-11 22:30:59,14.98328901,0.000256,69.9997,264.5295,262.8472,97.2396,1.4412e-06,-7.6e-07,0.0,0 STARLINK-5896,1 55930U 23037S   23315.93818873 -.00000076  00000-0  14412-5 0  9999,2 55930  69.9997 264.5295 0002560 262.8472  97.2396 14.98328901 36842,6950.196,96.107,573.841,570.282,0.0
55930.0,STARLINK-5896,PAYLOAD,2023-11-12 03:19:21,14.98354152,0.0003095,69.9991,264.0246,271.8219,88.2585,0.00023009,2.655e-05,0.0,0 STARLINK-5896,1 55930U 23037S   23316.13844551  .00002655  00000-0  23009-3 0  9998,2 55930  69.9991 264.0246 0003095 271.8219  88.2585 14.98354152 37219,6950.118,96.105,574.134,569.832,0.0
55930.0,STARLINK-5896,PAYLOAD,2023-11-12 06:31:37,14.9835544,0.0002869,69.9991,263.688,267.9227,92.1604,0.0002299,2.653e-05,0.0,0 STARLINK-5896,1 55930U 23037S   23316.27196299  .00002653  00000-0  22990-3 0  9998,2 55930  69.9991 263.6880 0002869 267.9227  92.1604 14.98355440 36891,6950.114,96.105,573.973,569.985,0.0
55930.0,STARLINK-5896,PAYLOAD,2023-11-12 14:32:18,14.98343138,0.0002405,70.0001,262.846,276.7346,83.3539,3.3071e-05,3.02e-06,0.0,0 STARLINK-5896,1 55930U 23037S   23316.60577428  .00000302  00000-0  33071-4 0  9994,2 55930  70.0001 262.8460 0002405 276.7346  83.3539 14.98343138 37281,6950.152,96.106,573.689,570.346,0.0
55930.0,STARLINK-5896,PAYLOAD,2023-11-12 22:33:00,14.98318529,0.0002885,69.9993,262.0044,272.0582,88.0247,-7.5167e-05,-9.89e-06,0.0,0 STARLINK-5896,1 55930U 23037S   23316.93959081 -.00000989  00000-0 -75167-4 0  9994,2 55930  69.9993 262.0044 0002885 272.0582  88.0247 14.98318529 36992,6950.228,96.108,574.099,570.088,0.0
55930.0,STARLINK-5896,PAYLOAD,2023-11-13 03:21:24,14.98319583,0.0002276,69.9997,261.4996,261.3549,98.7352,2.5981e-05,2.17e-06,0.0,0 STARLINK-5896,1 55930U 23037S   23317.13986840  .00000217  00000-0  25981-4 0  9991,2 55930  69.9997 261.4996 0002276 261.3549  98.7352 14.98319583 37361,6950.225,96.108,573.672,570.508,0.0
55930.0,STARLINK-5896,PAYLOAD,2023-11-13 06:33:40,14.98323042,0.0002375,70.0004,261.1648,257.3948,102.6945,-5.1045e-05,-7.02e-06,0.0,0 STARLINK-5896,1 55930U 23037S   23317.27338865 -.00000702  00000-0 -51045-4 0  9995,2 55930  70.0004 261.1648 0002375 257.3948 102.6945 14.98323042 37045,6950.214,96.107,573.73,570.429,0.0
55930.0,STARLINK-5896,PAYLOAD,2023-11-14 03:23:25,14.98330207,0.000272,70.0,258.9754,275.3276,84.7573,-2.7189e-06,-1.25e-06,0.0,0 STARLINK-5896,1 55930U 23037S   23318.14126339 -.00000125  00000-0 -27189-5 0  9995,2 55930  70.0000 258.9754 0002720 275.3276  84.7573 14.98330207 37511,6950.192,96.107,573.948,570.167,0.0
55930.0,STARLINK-5896,PAYLOAD,2023-11-14 13:00:13,14.98339241,0.0002808,70.0009,257.9646,273.0111,87.0727,-0.00016694,-2.085e-05,0.0,0 STARLINK-5896,1 55930U 23037S   23318.54181995 -.00002085  00000-0 -16694-3 0  9992,2 55930  70.0009 257.9646 0002808 273.0111  87.0727 14.98339241 37232,6950.164,96.106,573.981,570.078,0.0
55930.0,STARLINK-5896,PAYLOAD,2023-11-15 03:25:27,14.98306845,0.0002202,70.0012,256.4503,271.1752,88.9155,-2.877e-05,-4.36e-06,0.0,0 STARLINK-5896,1 55930U 23037S   23319.14267773 -.00000436  00000-0 -28770-4 0  9995,2 55930  70.0012 256.4503 0002202 271.1752  88.9155 14.98306845 37666,6950.264,96.108,573.66,570.599,0.0
55930.0,STARLINK-5896,PAYLOAD,2023-11-15 05:01:34,14.98321468,0.0002485,70.0015,256.2822,293.6726,66.4172,0.00014208,1.602e-05,0.0,0 STARLINK-5896,1 55930U 23037S   23319.20942705  .00001602  00000-0  14208-3 0  9991,2 55930  70.0015 256.2822 0002485 293.6726  66.4172 14.98321468 37673,6950.219,96.108,573.811,570.357,0.0
55930.0,STARLINK-5896,PAYLOAD,2023-11-16 05:03:35,14.9832879,0.0002679,70.0026,253.7568,322.8254,37.272,2.0315e-05,1.49e-06,0.0,0 STARLINK-5896,1 55930U 23037S   23320.21083037  .00000149  00000-0  20315-4 0  9990,2 55930  70.0026 253.7568 0002679 322.8254  37.2720 14.98328790 37827,6950.197,96.107,573.924,570.2,0.0
55930.0,STARLINK-5896,PAYLOAD,2023-11-17 05:05:36,14.98316664,0.0001703,70.0031,251.2314,308.6372,51.4634,0.00018714,2.14e-05,0.0,0 STARLINK-5896,1 55930U 23037S   23321.21223046  .00002140  00000-0  18714-3 0  9999,2 55930  70.0031 251.2314 0001703 308.6372  51.4634 14.98316664 37970,6950.234,96.108,573.283,570.916,0.0
55930.0,STARLINK-5896,PAYLOAD,2023-11-17 13:06:16,14.98327662,0.0001879,70.0023,250.3908,290.4451,69.6507,-1.1176e-05,-2.26e-06,0.0,0 STARLINK-5896,1 55930U 23037S   23321.54602967 -.00000226  00000-0 -11176-4 0  9999,2 55930  70.0023 250.3908 0001879 290.4451  69.6507 14.98327662 37688,6950.2,96.107,573.371,570.759,0.0
55930.0,STARLINK-5896,PAYLOAD,2023-11-17 19:30:48,14.98317556,0.0002426,70.0002,249.7179,279.4349,80.6536,0.00020728,2.38e-05,0.0,0 STARLINK-5896,1 55930U 23037S   23321.81306358  .00002380  00000-0  20728-3 0  9997,2 55930  70.0002 249.7179 0002426 279.4349  80.6536 14.98317556 38068,6950.231,96.108,573.782,570.41,0.0
55930.0,STARLINK-5896,PAYLOAD,2023-11-17 22:43:05,14.98270942,0.0002544,69.9995,249.3803,282.2035,77.8839,0.00088994,0.00010525,0.0,0 STARLINK-5896,1 55930U 23037S   23321.94658640  .00010525  00000-0  88994-3 0  9994,2 55930  69.9995 249.3803 0002544 282.2035  77.8839 14.98270942 37746,6950.376,96.111,574.009,570.472,0.0
55930.0,STARLINK-5896,PAYLOAD,2023-11-18 13:08:17,14.98328714,0.0002262,70.001,247.8667,280.6188,79.4716,-3.0736e-07,-9.7e-07,0.0,0 STARLINK-5896,1 55930U 23037S   23322.54742712 -.00000097  00000-0 -30736-6 0  9994,2 55930  70.0010 247.8667 0002262 280.6188  79.4716 14.98328714 37839,6950.197,96.107,573.634,570.49,0.0
55930.0,STARLINK-5896,PAYLOAD,2023-11-19 03:33:29,14.98332821,0.0002175,70.0014,246.3525,287.0362,73.0559,5.2601e-05,5.35e-06,0.0,0 STARLINK-5896,1 55930U 23037S   23323.14826309  .00000535  00000-0  52601-4 0  9994,2 55930  70.0014 246.3525 0002175 287.0362  73.0559 14.98332821 38265,6950.184,96.107,573.561,570.538,0.0
55930.0,STARLINK-5896,PAYLOAD,2023-11-19 05:09:37,14.98332817,0.0002272,70.001,246.1839,284.141,75.9496,5.051e-05,5.1e-06,0.0,0 STARLINK-5896,1 55930U 23037S   23323.21502251  .00000510  00000-0  50510-4 0  9999,2 55930  70.0010 246.1839 0002272 284.1410  75.9496 14.98332817 37936,6950.184,96.107,573.628,570.47,0.0
55930.0,STARLINK-5896,PAYLOAD,2023-11-19 22:47:06,14.98333309,0.0002591,70.0005,244.3311,274.2073,85.879,4.6168e-05,4.58e-06,0.0,0 STARLINK-5896,1 55930U 23037S   23323.94937855  .00000458  00000-0  46168-4 0  9996,2 55930  70.0005 244.3311 0002591 274.2073  85.8790 14.98333309 38041,6950.183,96.107,573.848,570.247,0.0
55930.0,STARLINK-5896,PAYLOAD,2023-11-20 03:35:30,14.98332477,0.0002495,70.0005,243.828,266.2851,93.8023,6.4928e-05,6.82e-06,0.0,0 STARLINK-5896,1 55930U 23037S   23324.14965770  .00000682  00000-0  64928-4 0  9999,2 55930  70.0005 243.8280 0002495 266.2851  93.8023 14.98332477 38412,6950.185,96.107,573.784,570.316,0.0
55930.0,STARLINK-5896,PAYLOAD,2023-11-20 11:36:10,14.98335554,0.0002433,70.0008,242.9861,272.7122,87.3759,-9.4932e-05,-1.226e-05,0.0,0 STARLINK-5896,1 55930U 23037S   23324.48345947 -.00001226  00000-0 -94932-4 0  9999,2 55930  70.0008 242.9861 0002433 272.7122  87.3759 14.98335554 38126,6950.176,96.107,573.732,570.35,0.0
55930.0,STARLINK-5896,PAYLOAD,2023-11-20 21:12:59,14.98335599,0.0002222,70.0004,241.976,273.322,86.7684,-7.3575e-05,-9.71e-06,0.0,0 STARLINK-5896,1 55930U 23037S   23324.88401927 -.00000971  00000-0 -73575-4 0  9990,2 55930  70.0004 241.9760 0002222 273.3220  86.7684 14.98335599 38186,6950.176,96.107,573.585,570.496,0.0
